     2.100          NAVIGATION                              RINEX VERSION / TYPE
fic2rin                                 09/14/2009 01:07:23 PGM / RUN BY / DATE
                                                            END OF HEADER
11 09  9 13 12  0  0.0 -.194334425032D-04 -.170530256582D-11  .000000000000D+00
     .520000000000D+02  .162187500000D+02  .636240787697D-08  .224453990543D+01
     .722706317902D-06  .981133244932D-02  .639818608761D-05  .515369272041D+04
     .432000000000D+05 -.139698386192D-06 -.261973168472D+01 -.167638063431D-06
     .889277935435D+00  .218250000000D+03  .724527122274D+00 -.885858328127D-08
     .217866217860D-10  .100000000000D+01  .154900000000D+04  .000000000000D+00
     .240000000000D+01  .000000000000D+00 -.116415321827D-07  .520000000000D+02
     .360060000000D+05  .400000000000D+01
12 09  9 13 12  0  0.0 -.219607260078D-03  .568434188608D-11  .000000000000D+00
     .270000000000D+02 -.963437500000D+02  .427696386700D-08  .240533504370D+01
    -.496953725815D-05  .309689843562D-02  .907294452190D-05  .515358189774D+04
     .432000000000D+05  .931322574615D-08  .179540350549D+01  .521540641785D-07
     .967826508510D+00  .206187500000D+03 -.587276610360D+00 -.786568478020D-08
    -.375015620906D-10  .100000000000D+01  .154900000000D+04  .000000000000D+00
     .240000000000D+01  .000000000000D+00 -.116415321827D-07  .270000000000D+02
     .360060000000D+05  .400000000000D+01
14 09  9 13 12  0  0.0 -.515533611178D-04  .522959453519D-11  .000000000000D+00
     .350000000000D+02  .905625000000D+02  .399802367659D-08 -.163117309325D+01
     .478699803352D-05  .491478177719D-02  .511109828949D-05  .515364844322D+04
     .432000000000D+05  .856816768646D-07 -.264529888309D+00 -.372529029846D-08
     .988121129223D+00  .293593750000D+03 -.215719944486D+01 -.792533012181D-08
     .254296306748D-09  .100000000000D+01  .154900000000D+04  .000000000000D+00
     .240000000000D+01  .000000000000D+00 -.884756445885D-08  .350000000000D+02
     .360060000000D+05  .400000000000D+01
16 09  9 13 12  0  0.0  .131842680275D-04 -.386535248253D-11  .000000000000D+00
     .480000000000D+02 -.111250000000D+03  .420374653149D-08 -.466895571503D-02
    -.586919486523D-05  .529687781818D-02  .870041549206D-05  .515362454414D+04
     .432000000000D+05  .577419996262D-07  .181250984839D+01 -.130385160446D-07
     .969215825718D+00  .217906250000D+03 -.275062161169D+00 -.794068790438D-08
    -.403588239642D-10  .100000000000D+01  .154900000000D+04  .000000000000D+00
     .240000000000D+01  .000000000000D+00 -.977888703346D-08  .480000000000D+02
     .360060000000D+05  .400000000000D+01
17 09  9 13 12  0  0.0  .846134498715D-04  .306954461848D-11  .000000000000D+00
     .370000000000D+02 -.759375000000D+01  .454018911710D-08 -.113254437090D+01
    -.465661287308D-06  .464903609827D-02  .937655568123D-05  .515373100853D+04
     .432000000000D+05  .139698386192D-06  .285512146203D+01 -.726431608200D-07
     .960228511383D+00  .202718750000D+03 -.264225977757D+01 -.790354350003D-08
     .229295265354D-09  .100000000000D+01  .154900000000D+04  .000000000000D+00
     .240000000000D+01  .000000000000D+00 -.102445483208D-07  .370000000000D+02
     .360060000000D+05  .400000000000D+01
18 09  9 13 12  0  0.0  .124974176288D-04  .295585778076D-11  .000000000000D+00
     .270000000000D+02  .615625000000D+02  .487734601818D-08  .201555707879D+00
     .322610139847D-05  .109068482416D-01  .915490090847D-05  .515362855148D+04
     .432000000000D+05 -.204890966415D-07 -.132499510780D+01  .195577740669D-06
     .940526078446D+00  .196062500000D+03 -.238081297302D+01 -.827355891265D-08
    -.265011038773D-09  .100000000000D+01  .154900000000D+04  .000000000000D+00
     .240000000000D+01  .000000000000D+00 -.107102096081D-07  .270000000000D+02
     .360060000000D+05  .400000000000D+01
19 09  9 13 12  0  0.0  .109882093966D-04 -.170530256582D-11  .000000000000D+00
     .660000000000D+02 -.124062500000D+02  .457519057505D-08 -.178172071420D+01
    -.594183802605D-06  .583933887538D-02  .922195613384D-05  .515364868164D+04
     .432000000000D+05 -.409781932831D-07  .291083828289D+01 -.335276126862D-07
     .957931803145D+00  .201656250000D+03 -.259861045238D+00 -.791568686299D-08
     .365015204348D-09  .100000000000D+01  .154900000000D+04  .000000000000D+00
     .240000000000D+01  .000000000000D+00 -.149011611938D-07  .660000000000D+02
     .360060000000D+05  .400000000000D+01
20 09  9 13 12  0  0.0  .723935663700D-04 -.909494701773D-12  .000000000000D+00
     .630000000000D+02  .448750000000D+02  .481484341470D-08  .379156002009D+00
     .209920108318D-05  .384359376039D-02  .953860580921D-05  .515377795410D+04
     .432000000000D+05 -.122934579849D-06 -.137889640635D+01 -.745058059692D-08
     .940222300581D+00  .183937500000D+03  .132594182499D+01 -.820534178542D-08
    -.324656380384D-09  .100000000000D+01  .154900000000D+04  .000000000000D+00
     .240000000000D+01  .000000000000D+00 -.745058059692D-08  .630000000000D+02
     .360060000000D+05  .400000000000D+01
21 09  9 13 12  0  0.0 -.891648232937D-05 -.227373675443D-11  .000000000000D+00
     .510000000000D+02  .142187500000D+02  .531772150445D-08  .143772196031D+01
     .854954123497D-06  .155611182563D-01  .735372304916D-05  .515374883461D+04
     .432000000000D+05 -.197440385818D-06 -.238345216062D+01  .147148966789D-06
     .933577005447D+00  .227000000000D+03 -.255913359631D+01 -.843463705077D-08
    -.360014996070D-09  .100000000000D+01  .154900000000D+04  .000000000000D+00
     .240000000000D+01  .000000000000D+00 -.121071934700D-07  .510000000000D+02
     .360060000000D+05  .400000000000D+01
22 09  9 13 12  0  0.0  .191112514585D-03 -.568434188608D-12  .000000000000D+00
     .113000000000D+03  .686875000000D+02  .485770234280D-08 -.820658491652D+00
     .363960862160D-05  .532711751293D-02  .920705497265D-05  .515366458321D+04
     .432000000000D+05 -.409781932831D-07 -.131953490358D+01  .726431608200D-07
     .938198349030D+00  .192312500000D+03 -.189225592671D+01 -.822069956799D-08
    -.239295681911D-09  .100000000000D+01  .154900000000D+04  .000000000000D+00
     .485000000000D+01  .000000000000D+00 -.176951289177D-07  .113000000000D+03
     .360060000000D+05  .400000000000D+01
23 09  9 13 12  0  0.0  .388617161661D-03 -.341060513165D-12  .000000000000D+00
     .280000000000D+02  .907500000000D+02  .434982404477D-08 -.228350552284D+01
     .469945371151D-05  .646783830598D-02  .645592808723D-05  .515357718468D+04
     .432000000000D+05 -.163912773132D-06 -.298931046238D+00 -.931322574615D-07
     .970045061813D+00  .266343750000D+03  .296989105143D+01 -.805819279893D-08
     .223223583873D-09  .100000000000D+01  .154900000000D+04  .000000000000D+00
     .240000000000D+01  .000000000000D+00 -.200234353542D-07  .280000000000D+02
     .360060000000D+05  .400000000000D+01
24 09  9 13 12  0  0.0  .220234505832D-03  .295585778076D-11  .000000000000D+00
     .900000000000D+02  .128437500000D+02  .493877714846D-08  .983148799408D-01
     .644475221634D-06  .648172898218D-02  .697188079357D-05  .515366139793D+04
     .432000000000D+05  .670552253723D-07 -.234945863019D+01 -.763684511185D-07
     .950178847883D+00  .237906250000D+03 -.627649742211D+00 -.824462913618D-08
    -.184293390845D-09  .100000000000D+01  .154900000000D+04  .000000000000D+00
     .240000000000D+01  .630000000000D+02 -.139698386192D-08  .900000000000D+02
     .360060000000D+05  .400000000000D+01
25 09  9 13 12  0  0.0  .592635944486D-03  .148929757415D-10  .000000000000D+00
     .900000000000D+01 -.175000000000D+02  .469090968093D-08  .632900019146D+00
    -.103563070297D-05  .112391103758D-01  .285543501377D-05  .515364393044D+04
     .432000000000D+05 -.689178705215D-07  .648110728893D+00 -.102445483208D-06
     .970912083620D+00  .332937500000D+03 -.121241192701D+01 -.851964059151D-08
     .578595529398D-10  .100000000000D+01  .154900000000D+04  .000000000000D+00
     .240000000000D+01  .000000000000D+00 -.745058059692D-08  .900000000000D+01
     .360060000000D+05  .400000000000D+01
26 09  9 13 12  0  0.0  .628815032542D-04 -.909494701773D-12  .000000000000D+00
     .590000000000D+02  .831875000000D+02  .394052128139D-08  .181386925916D+01
     .406615436077D-05  .196845607134D-01  .557862222195D-05  .515360997391D+04
     .432000000000D+05 -.361353158951D-06 -.246929927588D+00 -.385567545891D-06
     .992500377419D+00  .291062500000D+03  .102665992126D+01 -.790997233924D-08
     .227152318949D-09  .100000000000D+01  .154900000000D+04  .000000000000D+00
     .240000000000D+01  .000000000000D+00 -.605359673500D-08  .590000000000D+02
     .360060000000D+05  .400000000000D+01
29 09  9 13 12  0  0.0  .570528209209D-04  .329691829393D-11  .000000000000D+00
     .560000000000D+02 -.934375000000D+01  .464055044041D-08  .146168560297D+01
    -.648200511932D-06  .311506539583D-02  .886246562004D-05  .515360636330D+04
     .432000000000D+05  .465661287308D-07  .286332385645D+01 -.260770320892D-07
     .960488849359D+00  .207218750000D+03 -.127545330512D+01 -.793640201157D-08
     .256439253153D-09  .100000000000D+01  .154900000000D+04  .000000000000D+00
     .240000000000D+01  .000000000000D+00 -.884756445885D-08  .560000000000D+02
     .360060000000D+05  .400000000000D+01
30 09  9 13 12  0  0.0  .176551286131D-03  .306954461848D-11  .000000000000D+00
     .350000000000D+02 -.958750000000D+02  .470376735936D-08 -.925856129053D-01
    -.495463609695D-05  .119127574144D-01  .898912549019D-05  .515367833328D+04
     .432000000000D+05 -.167638063431D-06  .174587841226D+01  .670552253723D-07
     .952936521608D+00  .201250000000D+03  .145156745735D+01 -.834463330176D-08
    -.857178562071D-11  .100000000000D+01  .154900000000D+04  .000000000000D+00
     .240000000000D+01  .000000000000D+00 -.791624188423D-08  .350000000000D+02
     .360060000000D+05  .400000000000D+01
